ORBCOMM FM06            
1 25118U 97084G   23326.11457009  .00001928  00000+0  62912-3 0  9990
2 25118  45.0154 230.0046 0001677 278.5703 221.7268 14.41706442358700
ORBCOMM FM04            
1 25159U 98007C   23327.11755644  .00001689  00000+0  67335-3 0  9996
2 25159 107.9749  45.9211 0043287 168.3791 191.8356 14.31761756342375
ORBCOMM FM19            
1 25415U 98046C   23326.50739094  .00001636  00000+0  61869-3 0  9995
2 25415  44.9967   6.3124 0005095 266.5764 233.3787 14.34957636321859
ORBCOMM FM05 [-]        
1 25117U 97084F   23325.85217027  .00001555  00000+0  51550-3 0  9995
2 25117  45.0160 231.0857 0002081 252.1730 107.8893 14.41744516357751
ORBCOMM FM07 [-]        
1 25119U 97084H   23325.72425790  .00001657  00000+0  54768-3 0  9998
2 25119  45.0149 232.3196 0002372 229.5264 130.5380 14.41644851358647
ORBCOMM FM03 [-]        
1 25158U 98007B   23327.16833453  .00001762  00000+0  70258-3 0  9995
2 25158 107.9767  43.2019 0047881 169.9958 190.2143 14.31497106342245
ORBCOMM FM17 [-]        
1 25413U 98046A   23326.36242946  .00001302  00000+0  52711-3 0  9998
2 25413  44.9952  75.2304 0003563 219.3972 140.6615 14.32537267320964
ORBCOMM FM18 [-]        
1 25414U 98046B   23326.11516892  .00001458  00000+0  55507-3 0  9994
2 25414  44.9957   6.9690 0006206 272.4065  87.6072 14.35094809321836
